NORAD_CAT_ID,OBJECT_NAME,OBJECT_TYPE,EPOCH,MEAN_MOTION,ECCENTRICITY,INCLINATION,RA_OF_ASC_NODE,ARG_OF_PERICENTER,MEAN_ANOMALY,BSTAR,MEAN_MOTION_DOT,MEAN_MOTION_DDOT,TLE_LINE0,TLE_LINE1,TLE_LINE2,SEMIMAJOR_AXIS,PERIOD,APOGEE,PERIGEE,DECAYED
53573.0,STARLINK-4547,PAYLOAD,2023-10-22 11:04:24,15.08835884,0.0001654,53.2183,356.069,83.5804,276.5377,0.00011536,1.548e-05,0.0,0 STARLINK-4547,1 53573U 22101AY  23295.46139120  .00001548  00000-0  11536-3 0  9993,2 53573  53.2183 356.0690 0001654  83.5804 276.5377 15.08835884 65222,6917.893,95.438,540.902,538.614,0.0
53573.0,STARLINK-4547,PAYLOAD,2023-10-22 20:36:43,15.08835514,0.0001695,53.2181,354.2847,73.4199,286.6979,6.5378e-05,7.52e-06,0.0,0 STARLINK-4547,1 53573U 22101AY  23295.85883285  .00000752  00000-0  65378-4 0  9994,2 53573  53.2181 354.2847 0001695  73.4199 286.6979 15.08835514 65280,6917.894,95.438,540.932,538.587,0.0
53573.0,STARLINK-4547,PAYLOAD,2023-10-23 20:27:30,15.08839348,0.0001514,53.2179,349.8249,90.7888,269.3278,7.8416e-05,9.6e-06,0.0,0 STARLINK-4547,1 53573U 22101AY  23296.85243270  .00000960  00000-0  78416-4 0  9997,2 53573  53.2179 349.8249 0001514  90.7888 269.3278 15.08839348 65436,6917.882,95.438,540.795,538.7,0.0
53573.0,STARLINK-4547,PAYLOAD,2023-10-24 10:45:56,15.08886429,0.0001946,53.219,347.1466,89.3589,270.7626,0.00080454,0.00012556,0.0,0 STARLINK-4547,1 53573U 22101AY  23297.44857063  .00012556  00000-0  80454-3 0  9992,2 53573  53.2190 347.1466 0001946  89.3589 270.7626 15.08886429 65527,6917.738,95.435,540.95,538.257,0.0
53573.0,STARLINK-4547,PAYLOAD,2023-10-25 10:36:44,15.08849083,0.0001592,53.2179,342.6869,88.992,271.1255,0.00011156,1.488e-05,0.0,0 STARLINK-4547,1 53573U 22101AY  23298.44218746  .00001488  00000-0  11156-3 0  9997,2 53573  53.2179 342.6869 0001592  88.9920 271.1255 15.08849083 65676,6917.853,95.437,540.819,538.616,0.0
53573.0,STARLINK-4547,PAYLOAD,2023-10-25 20:09:03,15.08846121,0.0001717,53.2182,340.9035,83.2283,276.8904,6.8186e-05,7.97e-06,0.0,0 STARLINK-4547,1 53573U 22101AY  23298.83962875  .00000797  00000-0  68186-4 0  9997,2 53573  53.2182 340.9035 0001717  83.2283 276.8904 15.08846121 65735,6917.862,95.437,540.914,538.539,0.0
53573.0,STARLINK-4547,PAYLOAD,2023-10-26 04:06:00,15.08828078,0.0001575,53.219,339.4167,89.2294,270.8878,0.00025838,3.825e-05,0.0,0 STARLINK-4547,1 53573U 22101AY  23299.17084138  .00003825  00000-0  25838-3 0  9993,2 53573  53.2190 339.4167 0001575  89.2294 270.8878 15.08828078 65783,6917.917,95.438,540.871,538.692,0.0
53573.0,STARLINK-4547,PAYLOAD,2023-10-26 08:52:09,15.08849991,0.0001858,53.2186,338.5245,94.1318,265.9887,-2.2975e-05,-6.54e-06,0.0,0 STARLINK-4547,1 53573U 22101AY  23299.36955024 -.00000654  00000-0 -22975-4 0  9994,2 53573  53.2186 338.5245 0001858  94.1318 265.9887 15.08849991 65817,6917.85,95.437,541.0,538.43,0.0
53573.0,STARLINK-4547,PAYLOAD,2023-10-26 19:59:50,15.08848475,0.0001552,53.2181,336.4419,93.9572,266.1598,2.9307e-05,1.79e-06,0.0,0 STARLINK-4547,1 53573U 22101AY  23299.83322603  .00000179  00000-0  29307-4 0  9993,2 53573  53.2181 336.4419 0001552  93.9572 266.1598 15.08848475 65887,6917.854,95.437,540.793,538.646,0.0
53573.0,STARLINK-4547,PAYLOAD,2023-10-27 11:53:41,15.08858621,0.0001547,53.2163,333.4679,92.1416,267.9754,0.00025094,3.71e-05,0.0,0 STARLINK-4547,1 53573U 22101AY  23300.49561918  .00003710  00000-0  25094-3 0  9994,2 53573  53.2163 333.4679 0001547  92.1416 267.9754 15.08858621 65982,6917.823,95.436,540.759,538.618,0.0
53573.0,STARLINK-4547,PAYLOAD,2023-10-27 19:50:37,15.08842308,0.0001624,53.218,331.9837,85.2002,274.9176,3.1811e-05,2.18e-06,0.0,0 STARLINK-4547,1 53573U 22101AY  23300.82682736  .00000218  00000-0  31811-4 0  9998,2 53573  53.2180 331.9837 0001624  85.2002 274.9176 15.08842308 66038,6917.873,95.437,540.862,538.615,0.0
53573.0,STARLINK-4547,PAYLOAD,2023-10-28 08:33:43,15.08832608,0.0001568,53.2169,329.6038,96.606,263.511,-2.3995e-05,-6.7e-06,0.0,0 STARLINK-4547,1 53573U 22101AY  23301.35675385 -.00000670  00000-0 -23995-4 0  9997,2 53573  53.2169 329.6038 0001568  96.6060 263.5110 15.08832608 66112,6917.903,95.438,540.853,538.683,0.0
53573.0,STARLINK-4547,PAYLOAD,2023-10-28 11:44:29,15.08836756,0.000162,53.2162,329.008,97.9966,262.121,1.4245e-05,-6.1e-07,0.0,0 STARLINK-4547,1 53573U 22101AY  23301.48923247 -.00000061  00000-0  14245-4 0  9995,2 53573  53.2162 329.0080 0001620  97.9966 262.1210 15.08836756 66130,6917.89,95.438,540.876,538.635,0.0
53573.0,STARLINK-4547,PAYLOAD,2023-10-29 05:13:43,15.08848013,0.0001704,53.2161,325.7368,101.5315,258.5869,0.00017004,2.42e-05,0.0,0 STARLINK-4547,1 53573U 22101AY  23302.21786792  .00002420  00000-0  17004-3 0  9994,2 53573  53.2161 325.7368 0001704 101.5315 258.5869 15.08848013 66244,6917.856,95.437,540.9,538.542,0.0
53573.0,STARLINK-4547,PAYLOAD,2023-10-29 08:24:30,15.08849939,0.0001655,53.2161,325.1421,103.3892,256.7284,0.00029093,4.346e-05,0.0,0 STARLINK-4547,1 53573U 22101AY  23302.35034767  .00004346  00000-0  29093-3 0  9997,2 53573  53.2161 325.1421 0001655 103.3892 256.7284 15.08849939 66264,6917.85,95.437,540.86,538.57,0.0
53573.0,STARLINK-4547,PAYLOAD,2023-10-30 05:04:31,15.08831196,0.0001666,53.2156,321.2773,91.3748,268.7435,0.00010167,1.33e-05,0.0,0 STARLINK-4547,1 53573U 22101AY  23303.21147814  .00001330  00000-0  10167-3 0  9993,2 53573  53.2156 321.2773 0001666  91.3748 268.7435 15.08831196 66394,6917.907,95.438,540.925,538.62,0.0
53573.0,STARLINK-4547,PAYLOAD,2023-10-30 17:47:37,15.08831429,0.0001703,53.2194,318.8962,87.9852,272.1335,3.7517e-05,3.09e-06,0.0,0 STARLINK-4547,1 53573U 22101AY  23303.74140071  .00000309  00000-0  37517-4 0  9993,2 53573  53.2194 318.8962 0001703  87.9852 272.1335 15.08831429 66473,6917.907,95.438,540.95,538.593,0.0
53573.0,STARLINK-4547,PAYLOAD,2023-10-31 08:06:05,15.08838872,0.0001456,53.2185,316.2228,85.332,274.7839,2.417e-05,9.7e-07,0.0,0 STARLINK-4547,1 53573U 22101AY  23304.33755867  .00000097  00000-0  24170-4 0  9999,2 53573  53.2185 316.2228 0001456  85.3320 274.7839 15.08838872 66563,6917.884,95.438,540.756,538.742,0.0
53573.0,STARLINK-4547,PAYLOAD,2023-10-31 17:38:24,15.08837021,0.0001729,53.2182,314.4383,85.5682,274.5508,3.2709e-05,2.32e-06,0.0,0 STARLINK-4547,1 53573U 22101AY  23304.73500141  .00000232  00000-0  32709-4 0  9994,2 53573  53.2182 314.4383 0001729  85.5682 274.5508 15.08837021 66621,6917.889,95.438,540.951,538.558,0.0
53573.0,STARLINK-4547,PAYLOAD,2023-11-01 04:46:06,15.08829924,0.0001508,53.2185,312.3568,87.7293,272.3871,0.00010874,1.443e-05,0.0,0 STARLINK-4547,1 53573U 22101AY  23305.19868594  .00001443  00000-0  10874-3 0  9997,2 53573  53.2185 312.3568 0001508  87.7293 272.3871 15.08829924 66692,6917.911,95.438,540.819,538.733,0.0
53573.0,STARLINK-4547,PAYLOAD,2023-11-01 11:07:38,15.0883949,0.0001656,53.2184,311.1669,91.5875,268.5307,0.00012655,1.727e-05,0.0,0 STARLINK-4547,1 53573U 22101AY  23305.46364044  .00001727  00000-0  12655-3 0  9992,2 53573  53.2184 311.1669 0001656  91.5875 268.5307 15.08839490 66738,6917.882,95.438,540.893,538.601,0.0
53573.0,STARLINK-4547,PAYLOAD,2023-11-01 14:18:24,15.08845916,0.0001521,53.2182,310.5709,83.8149,276.3017,0.00014453,2.013e-05,0.0,0 STARLINK-4547,1 53573U 22101AY  23305.59611495  .00002013  00000-0  14453-3 0  9998,2 53573  53.2182 310.5709 0001521  83.8149 276.3017 15.08845916 66750,6917.862,95.437,540.78,538.675,0.0
53573.0,STARLINK-4547,PAYLOAD,2023-11-01 17:29:11,15.08828852,0.0001547,53.2195,309.976,81.2509,278.8659,2.6535e-05,1.34e-06,0.0,0 STARLINK-4547,1 53573U 22101AY  23305.72860909  .00000134  00000-0  26535-4 0  9996,2 53573  53.2195 309.9760 0001547  81.2509 278.8659 15.08828852 66774,6917.914,95.438,540.85,538.709,0.0
53573.0,STARLINK-4547,PAYLOAD,2023-11-02 04:36:53,15.08835075,0.0001274,53.2177,307.8949,88.1559,271.9579,0.00016123,2.279e-05,0.0,0 STARLINK-4547,1 53573U 22101AY  23306.19228406  .00002279  00000-0  16123-3 0  9991,2 53573  53.2177 307.8949 0001274  88.1559 271.9579 15.08835075 66846,6917.895,95.438,540.642,538.879,0.0
53573.0,STARLINK-4547,PAYLOAD,2023-11-02 09:23:02,15.08845568,0.0001599,53.2179,307.0023,91.7365,268.3811,0.00015909,2.245e-05,0.0,0 STARLINK-4547,1 53573U 22101AY  23306.39099872  .00002245  00000-0  15909-3 0  9990,2 53573  53.2179 307.0023 0001599  91.7365 268.3811 15.08845568 66878,6917.863,95.437,540.835,538.622,0.0
53573.0,STARLINK-4547,PAYLOAD,2023-11-02 17:19:57,15.08846712,0.0001563,53.2177,305.5161,88.0958,272.0213,-4.8144e-05,-1.054e-05,0.0,0 STARLINK-4547,1 53573U 22101AY  23306.72219727 -.00001054  00000-0 -48144-4 0  9997,2 53573  53.2177 305.5161 0001563  88.0958 272.0213 15.08846712 66926,6917.86,95.437,540.806,538.644,0.0
53573.0,STARLINK-4547,PAYLOAD,2023-11-03 04:27:40,15.08841695,0.0001536,53.2172,303.4333,92.7988,267.318,0.00016709,2.372e-05,0.0,0 STARLINK-4547,1 53573U 22101AY  23307.18588106  .00002372  00000-0  16709-3 0  9991,2 53573  53.2172 303.4333 0001536  92.7988 267.3180 15.08841695 66996,6917.875,95.437,540.803,538.678,0.0
53573.0,STARLINK-4547,PAYLOAD,2023-11-03 07:38:26,15.08848146,0.0001538,53.217,302.8394,92.911,267.2058,0.00017405,2.484e-05,0.0,0 STARLINK-4547,1 53573U 22101AY  23307.31835757  .00002484  00000-0  17405-3 0  9991,2 53573  53.2170 302.8394 0001538  92.9110 267.2058 15.08848146 67010,6917.855,95.437,540.784,538.657,0.0
53573.0,STARLINK-4547,PAYLOAD,2023-11-03 17:10:45,15.08839456,0.0001719,53.2176,301.0566,81.4606,278.658,-2.434e-05,-6.75e-06,0.0,0 STARLINK-4547,1 53573U 22101AY  23307.71580374 -.00000675  00000-0 -24340-4 0  9996,2 53573  53.2176 301.0566 0001719  81.4606 278.6580 15.08839456 67078,6917.882,95.438,540.936,538.558,0.0
53573.0,STARLINK-4547,PAYLOAD,2023-11-04 04:18:27,15.08839748,0.0001511,53.2173,298.9737,91.2836,268.8329,8.1197e-05,1.004e-05,0.0,0 STARLINK-4547,1 53573U 22101AY  23308.17948448  .00001004  00000-0  81197-4 0  9995,2 53573  53.2173 298.9737 0001511  91.2836 268.8329 15.08839748 67147,6917.881,95.438,540.791,538.701,0.0
